[{"OBJECT_NAME":"PREFIRE-2","OBJECT_ID":"2024-099A","EPOCH":"2026-03-09T13:43:59.023488","MEAN_MOTION":15.2026253,"ECCENTRICITY":0.0011923,"INCLINATION":97.4208,"RA_OF_ASC_NODE":286.39,"ARG_OF_PERICENTER":187.6312,"MEAN_ANOMALY":172.4744,"EPHEMERIS_TYPE":0,"CLASSIFICATION_TYPE":"U","NORAD_CAT_ID":59881,"ELEMENT_SET_NO":999,"REV_AT_EPOCH":9899,"BSTAR":0.00023093563,"MEAN_MOTION_DOT":4.952e-5,"MEAN_MOTION_DDOT":0},{"OBJECT_NAME":"SL-24 DEB","OBJECT_ID":"2008-040G","EPOCH":"2026-03-09T18:31:01.084512","MEAN_MOTION":15.22675803,"ECCENTRICITY":0.00142718,"INCLINATION":97.9814,"RA_OF_ASC_NODE":3.5579,"ARG_OF_PERICENTER":81.931,"MEAN_ANOMALY":278.3543,"EPHEMERIS_TYPE":0,"CLASSIFICATION_TYPE":"U","NORAD_CAT_ID":33318,"ELEMENT_SET_NO":999,"REV_AT_EPOCH":95458,"BSTAR":0.0007155905,"MEAN_MOTION_DOT":0.00016658,"MEAN_MOTION_DDOT":0}]
